[{"OBJECT_NAME":"STARLINK-32112","OBJECT_ID":"2024-120B","EPOCH":"2026-03-09T21:27:44.654112","MEAN_MOTION":15.30185965,"ECCENTRICITY":0.00012437,"INCLINATION":53.1616,"RA_OF_ASC_NODE":319.2489,"ARG_OF_PERICENTER":107.3197,"MEAN_ANOMALY":252.794,"EPHEMERIS_TYPE":0,"CLASSIFICATION_TYPE":"U","NORAD_CAT_ID":60136,"ELEMENT_SET_NO":999,"REV_AT_EPOCH":9648,"BSTAR":-3.4269808e-5,"MEAN_MOTION_DOT":-1.373e-5,"MEAN_MOTION_DDOT":0},{"OBJECT_NAME":"OBJECT K","OBJECT_ID":"2024-205K","EPOCH":"2026-03-09T22:22:01.331040","MEAN_MOTION":15.27932792,"ECCENTRICITY":0.00106729,"INCLINATION":97.417,"RA_OF_ASC_NODE":146.2172,"ARG_OF_PERICENTER":37.4736,"MEAN_ANOMALY":322.7246,"EPHEMERIS_TYPE":0,"CLASSIFICATION_TYPE":"U","NORAD_CAT_ID":61903,"ELEMENT_SET_NO":999,"REV_AT_EPOCH":7347,"BSTAR":0.00067315144,"MEAN_MOTION_DOT":0.00018331,"MEAN_MOTION_DDOT":0}]
